MALLIGYONG-1            
1 58400U 23179A   24093.57954301  .00006083  00000+0  27138-3 0  9991
2 58400  97.4140 341.5597 0010221 157.8263 202.3417 15.21711409 20222
